OBJECT_NAME,OBJECT_ID,EPOCH,MEAN_MOTION,ECCENTRICITY,INCLINATION,RA_OF_ASC_NODE,ARG_OF_PERICENTER,MEAN_ANOMALY,EPHEMERIS_TYPE,CLASSIFICATION_TYPE,NORAD_CAT_ID,ELEMENT_SET_NO,REV_AT_EPOCH,BSTAR,MEAN_MOTION_DOT,MEAN_MOTION_DDOT
STARLINK-37531,2026-110N,2026-06-09T12:00:02.998944,15.62115941,.0001142,97.2889,356.9082,82.6670,267.2195,0,U,69136,999,442,-.21501E-1,-.1659082E-1,0
STARLINK-37662,2026-110P,2026-06-09T12:00:02.998944,15.53223134,.0002041,97.2850,356.8685,100.1063,149.9162,0,U,69137,999,442,-.44302E-1,-.2426506E-1,0
STARLINK-37658,2026-110Q,2026-06-09T12:00:02.998944,15.49133435,.0000918,97.2850,356.7907,109.4726,329.0581,0,U,69138,999,442,.14881E-2,.81524E-3,0
STARLINK-37659,2026-110R,2026-06-09T12:00:02.998944,15.49153588,.0001342,97.2853,356.7755,89.5148,306.2173,0,U,69139,999,442,.15761E-2,.86469E-3,0
STARLINK-37653,2026-110S,2026-06-09T12:00:02.998944,15.49152419,.0001166,97.2855,356.7697,92.0287,289.9628,0,U,69140,999,442,.15459E-2,.84788E-3,0
STARLINK-37654,2026-110T,2026-06-09T12:00:02.998944,15.52883712,.0001506,97.2845,356.8693,122.3892,138.9051,0,U,69141,999,442,-.60159E-1,-.3267072E-1,0
STARLINK-37655,2026-110U,2026-06-09T12:00:02.998944,15.59309623,.0001343,97.2847,356.9020,95.6115,235.0547,0,U,69142,999,442,-.91695E-2,-.664221E-2,0
STARLINK-37636,2026-110V,2026-06-09T12:00:02.998944,15.64805226,.0002011,97.2845,356.9558,69.0124,32.5863,0,U,69143,999,442,-.30294E-1,-.2560328E-1,0
STARLINK-37638,2026-110W,2026-06-09T12:00:02.998944,15.65251571,.0002039,97.2848,356.9602,74.2917,37.1500,0,U,69144,999,442,-.30018E-1,-.2579759E-1,0
STARLINK-37657,2026-110X,2026-06-09T12:00:02.998944,15.51483402,.0001451,97.2846,356.8723,84.8944,176.2728,0,U,69145,999,447,-.31184E-1,-.1650475E-1,0
STARLINK-37639,2026-110Y,2026-06-09T12:00:02.998944,15.65855215,.0002092,97.2846,356.9660,71.9200,52.4538,0,U,69146,999,447,-.2883E-1,-.2544138E-1,0
STARLINK-37661,2026-110Z,2026-06-09T12:00:02.998944,15.49155991,.0001937,97.2856,356.8200,59.3317,84.6092,0,U,69147,999,447,.14456E-2,.79239E-3,0
STARLINK-37395,2026-111A,2026-06-09T08:49:54.151968,15.80914776,.0000699,53.1586,190.8485,86.6639,273.4463,0,U,69148,999,302,.71765E-3,.143598E-2,0
STARLINK-37346,2026-111B,2026-06-08T19:09:05.770944,15.80841008,.00009163,53.1585,193.6931,41.1598,318.9494,0,U,69149,999,293,.66052833E-3,.131475E-2,0
STARLINK-37332,2026-111C,2026-06-09T12:00:02.998944,15.71438741,.0001046,53.1598,190.2187,43.7806,332.7261,0,U,69150,999,431,-.22213E-1,-.2527343E-1,0
STARLINK-37297,2026-111D,2026-06-09T08:48:05.211072,15.80925020,.0000863,53.1587,190.8405,66.8359,293.2755,0,U,69151,999,302,.77923E-3,.156284E-2,0
STARLINK-37317,2026-111E,2026-06-09T10:16:17.982624,15.80928852,.0001286,53.1580,190.5094,65.3216,294.7940,0,U,69152,999,303,.11026E-2,.223202E-2,0
STARLINK-37374,2026-111F,2026-06-09T12:00:02.998944,15.66498561,.000085,53.1597,190.2705,67.4576,283.1571,0,U,69153,999,431,-.26792E-1,-.2486275E-1,0
STARLINK-37235,2026-111G,2026-06-09T12:00:02.998944,15.60703735,.0000939,53.1598,190.4368,65.9710,203.5721,0,U,69154,999,431,-.93863E-2,-.726385E-2,0
STARLINK-37329,2026-111H,2026-06-09T08:45:54.399744,15.80921018,.000085,53.1587,190.8291,115.1364,244.9746,0,U,69155,999,302,.79388E-3,.159261E-2,0
STARLINK-37345,2026-111J,2026-06-09T08:43:49.650240,15.80934213,.0000894,53.1588,190.8195,90.2419,269.8706,0,U,69156,999,302,.10052E-2,.203008E-2,0
STARLINK-37353,2026-111K,2026-06-09T08:43:30.834048,15.80951488,.0001004,53.1585,190.8182,128.9417,231.1695,0,U,69157,999,302,.11455E-2,.232423E-2,0
STARLINK-37363,2026-111L,2026-06-09T07:09:18.546912,15.82046001,.0004038,53.1583,191.1200,225.5728,134.4965,0,U,69158,999,301,.83303E-2,.2001975E-1,0
STARLINK-37343,2026-111M,2026-06-09T12:00:02.998944,15.65266917,.0001019,53.1598,190.2688,62.8452,288.3605,0,U,69159,999,431,-.20025E-1,-.1805683E-1,0
STARLINK-37328,2026-111N,2026-06-09T10:11:22.657920,15.80963093,.0000443,53.1590,190.4865,45.1574,314.9484,0,U,69160,999,303,.1214E-2,.246921E-2,0
STARLINK-37311,2026-111P,2026-06-09T12:00:02.998944,15.78044866,.0000927,53.1594,190.1571,82.2517,324.3045,0,U,69161,999,431,-.2553E-4,-.5095E-4,0
STARLINK-36286,2026-111Q,2026-06-09T12:00:02.998944,15.78043851,.0000988,53.1593,190.1466,62.6659,348.8132,0,U,69162,999,431,.71022E-5,.565E-5,0
STARLINK-37196,2026-111R,2026-06-09T08:48:34.600032,15.78083942,.0001185,53.1594,190.8403,66.7865,293.3281,0,U,69163,999,302,.73167E-3,.128462E-2,0
STARLINK-36288,2026-111S,2026-06-09T08:47:24.472608,15.78105117,.0000921,53.1590,190.8345,88.6614,271.4513,0,U,69164,999,302,.99152E-3,.17546E-2,0
STARLINK-37445,2026-111T,2026-06-09T12:00:02.998944,15.78041679,.0001067,53.1592,190.1319,79.1047,339.3036,0,U,69165,999,431,-.75348E-5,-.1975E-4,0
