STARLINK-37531          
1 69136U 26110N   26160.50003471 -.01659082  00000+0 -21501-1 0  9992
2 69136  97.2889 356.9082 0001142  82.6670 267.2195 15.62115941  4427
STARLINK-37662          
1 69137U 26110P   26160.50003471 -.02426506  00000+0 -44302-1 0  9991
2 69137  97.2850 356.8685 0002041 100.1063 149.9162 15.53223134  4429
STARLINK-37658          
1 69138U 26110Q   26160.50003471  .00081524  00000+0  14881-2 0  9995
2 69138  97.2850 356.7907 0000918 109.4726 329.0581 15.49133435  4420
STARLINK-37659          
1 69139U 26110R   26160.50003471  .00086469  00000+0  15761-2 0  9997
2 69139  97.2853 356.7755 0001342  89.5148 306.2173 15.49153588  4428
STARLINK-37653          
1 69140U 26110S   26160.50003471  .00084788  00000+0  15459-2 0  9995
2 69140  97.2855 356.7697 0001166  92.0287 289.9628 15.49152419  4428
STARLINK-37654          
1 69141U 26110T   26160.50003471 -.03267072  00000+0 -60159-1 0  9996
2 69141  97.2845 356.8693 0001506 122.3892 138.9051 15.52883712  4426
STARLINK-37655          
1 69142U 26110U   26160.50003471 -.00664221  00000+0 -91695-2 0  9991
2 69142  97.2847 356.9020 0001343  95.6115 235.0547 15.59309623  4423
STARLINK-37636          
1 69143U 26110V   26160.50003471 -.02560328  00000+0 -30294-1 0  9994
2 69143  97.2845 356.9558 0002011  69.0124  32.5863 15.64805226  4423
STARLINK-37638          
1 69144U 26110W   26160.50003471 -.02579759  00000+0 -30018-1 0  9997
2 69144  97.2848 356.9602 0002039  74.2917  37.1500 15.65251571  4423
STARLINK-37657          
1 69145U 26110X   26160.50003471 -.01650475  00000+0 -31184-1 0  9997
2 69145  97.2846 356.8723 0001451  84.8944 176.2728 15.51483402  4476
STARLINK-37639          
1 69146U 26110Y   26160.50003471 -.02544138  00000+0 -28830-1 0  9991
2 69146  97.2846 356.9660 0002092  71.9200  52.4538 15.65855215  4476
STARLINK-37661          
1 69147U 26110Z   26160.50003471  .00079239  00000+0  14456-2 0  9993
2 69147  97.2856 356.8200 0001937  59.3317  84.6092 15.49155991  4471
STARLINK-37395          
1 69148U 26111A   26160.36798787  .00143598  00000+0  71765-3 0  9997
2 69148  53.1586 190.8485 0000699  86.6639 273.4463 15.80914776  3027
STARLINK-37346          
1 69149U 26111B   26159.79798346  .00131475  00000+0  66053-3 0  9999
2 69149  53.1585 193.6931 0000916  41.1598 318.9494 15.80841008  2931
STARLINK-37332          
1 69150U 26111C   26160.50003471 -.02527343  00000+0 -22213-1 0  9995
2 69150  53.1598 190.2187 0001046  43.7806 332.7261 15.71438741  4314
STARLINK-37297          
1 69151U 26111D   26160.36672698  .00156284  00000+0  77923-3 0  9991
2 69151  53.1587 190.8405 0000863  66.8359 293.2755 15.80925020  3024
STARLINK-37317          
1 69152U 26111E   26160.42798591  .00223202  00000+0  11026-2 0  9996
2 69152  53.1580 190.5094 0001286  65.3216 294.7940 15.80928852  3034
STARLINK-37374          
1 69153U 26111F   26160.50003471 -.02486275  00000+0 -26792-1 0  9992
2 69153  53.1597 190.2705 0000850  67.4576 283.1571 15.66498561  4314
STARLINK-37235          
1 69154U 26111G   26160.50003471 -.00726385  00000+0 -93863-2 0  9994
2 69154  53.1598 190.4368 0000939  65.9710 203.5721 15.60703735  4313
STARLINK-37329          
1 69155U 26111H   26160.36521296  .00159261  00000+0  79388-3 0  9997
2 69155  53.1587 190.8291 0000850 115.1364 244.9746 15.80921018  3027
STARLINK-37345          
1 69156U 26111J   26160.36376910  .00203008  00000+0  10052-2 0  9990
2 69156  53.1588 190.8195 0000894  90.2419 269.8706 15.80934213  3027
STARLINK-37353          
1 69157U 26111K   26160.36355132  .00232423  00000+0  11455-2 0  9995
2 69157  53.1585 190.8182 0001004 128.9417 231.1695 15.80951488  3024
STARLINK-37363          
1 69158U 26111L   26160.29813133  .02001975  00000+0  83303-2 0  9997
2 69158  53.1583 191.1200 0004038 225.5728 134.4965 15.82046001  3019
STARLINK-37343          
1 69159U 26111M   26160.50003471 -.01805683  00000+0 -20025-1 0  9998
2 69159  53.1598 190.2688 0001019  62.8452 288.3605 15.65266917  4313
STARLINK-37328          
1 69160U 26111N   26160.42456780  .00246921  00000+0  12140-2 0  9997
2 69160  53.1590 190.4865 0000443  45.1574 314.9484 15.80963093  3030
STARLINK-37311          
1 69161U 26111P   26160.50003471 -.00005095  00000+0 -25530-4 0  9998
2 69161  53.1594 190.1571 0000927  82.2517 324.3045 15.78044866  4317
STARLINK-36286          
1 69162U 26111Q   26160.50003471  .00000565  00000+0  71022-5 0  9992
2 69162  53.1593 190.1466 0000988  62.6659 348.8132 15.78043851  4317
STARLINK-37196          
1 69163U 26111R   26160.36706713  .00128462  00000+0  73167-3 0  9993
2 69163  53.1594 190.8403 0001185  66.7865 293.3281 15.78083942  3022
STARLINK-36288          
1 69164U 26111S   26160.36625547  .00175460  00000+0  99152-3 0  9991
2 69164  53.1590 190.8345 0000921  88.6614 271.4513 15.78105117  3020
STARLINK-37445          
1 69165U 26111T   26160.50003471 -.00001975  00000+0 -75348-5 0  9998
2 69165  53.1592 190.1319 0001067  79.1047 339.3036 15.78041679  4313
